[{"OBJECT_NAME":"JINJUSAT-1B","OBJECT_ID":"2025-052A","EPOCH":"2026-03-09T15:55:38.242848","MEAN_MOTION":15.30194857,"ECCENTRICITY":0.00055504,"INCLINATION":97.4113,"RA_OF_ASC_NODE":325.4613,"ARG_OF_PERICENTER":82.193,"MEAN_ANOMALY":277.9941,"EPHEMERIS_TYPE":0,"CLASSIFICATION_TYPE":"U","NORAD_CAT_ID":63210,"ELEMENT_SET_NO":999,"REV_AT_EPOCH":5486,"BSTAR":0.00068430401,"MEAN_MOTION_DOT":0.00019955,"MEAN_MOTION_DDOT":0},{"OBJECT_NAME":"STARLINK-35880","OBJECT_ID":"2025-303AA","EPOCH":"2026-03-09T01:45:38.939040","MEAN_MOTION":15.2758041,"ECCENTRICITY":0.00015817,"INCLINATION":43.0015,"RA_OF_ASC_NODE":313.9591,"ARG_OF_PERICENTER":259.0378,"MEAN_ANOMALY":101.0296,"EPHEMERIS_TYPE":0,"CLASSIFICATION_TYPE":"U","NORAD_CAT_ID":67187,"ELEMENT_SET_NO":999,"REV_AT_EPOCH":1264,"BSTAR":0.0012079101,"MEAN_MOTION_DOT":0.00033127,"MEAN_MOTION_DDOT":0}]
